[{"OBJECT_NAME":"STARLINK-30861","OBJECT_ID":"2023-171A","EPOCH":"2026-03-09T22:00:01.999584","MEAN_MOTION":15.22507727,"ECCENTRICITY":0.00017126,"INCLINATION":42.9995,"RA_OF_ASC_NODE":283.6227,"ARG_OF_PERICENTER":267.5987,"MEAN_ANOMALY":75.0186,"EPHEMERIS_TYPE":0,"CLASSIFICATION_TYPE":"U","NORAD_CAT_ID":58230,"ELEMENT_SET_NO":999,"REV_AT_EPOCH":572,"BSTAR":0.00089230355,"MEAN_MOTION_DOT":0.00020896,"MEAN_MOTION_DDOT":0},{"OBJECT_NAME":"OBJECT L","OBJECT_ID":"2024-205L","EPOCH":"2026-03-07T03:22:40.585728","MEAN_MOTION":15.10822925,"ECCENTRICITY":0.00547724,"INCLINATION":97.4213,"RA_OF_ASC_NODE":140.2188,"ARG_OF_PERICENTER":346.2042,"MEAN_ANOMALY":13.7688,"EPHEMERIS_TYPE":0,"CLASSIFICATION_TYPE":"U","NORAD_CAT_ID":61904,"ELEMENT_SET_NO":999,"REV_AT_EPOCH":7282,"BSTAR":0.00079283043,"MEAN_MOTION_DOT":0.00013606,"MEAN_MOTION_DDOT":0}]
